{
  "norad_id": 64115,
  "name": "STARLINK-34067",
  "history": [
    {
      "epoch": "2026-03-28T21:07:09.831360Z",
      "apogee_km": 475.9338628240175,
      "perigee_km": 474.54797274148405,
      "latitude_deg": 1.8264376207809066e-05,
      "longitude_deg": 154.3214708500116,
      "height_km": 475.8482630072125,
      "semi_major_axis_km": 6853.377917782751,
      "eccentricity": 0.00010111,
      "inclination_deg": 53.1591,
      "raan_deg": 297.4065,
      "arg_perigee_deg": 65.159,
      "mean_anomaly_deg": 294.9516,
      "mean_motion_rev_day": 15.30191343
    }
  ]
}