{"fetched_at":"2026-03-29T16:36:15Z","count":15609,"tles":[{"name":"STARLINK-34067","line1":"1 64115U 25110V   26087.87997490  .00025706  00000+0  87728-3 0  9996","line2":"2 64115  53.1591 297.4065 0001011  65.1590 294.9516 15.30191343 48823","category":"Starlink"}]}